ONEWEB-0452             
1 51644U 22012Y   26082.09554037  .00000040  00000+0  71104-4 0  9998
2 51644  87.9173  22.9750 0001624  85.0005 275.1312 13.17651054202337
ONEWEB-0456             
1 51646U 22012AA  26081.90665411  .00000696  00000+0  19587-2 0  9990
2 51646  87.8815  53.4156 0001987  86.9312 273.2042 13.10373702198048
ONEWEB-0457             
1 51647U 22012AB  26081.95975649 -.00000235  00000+0 -70803-3 0  9993
2 51647  87.8797  53.4349 0001834  69.1922 290.9401 13.10375857198052
ONEWEB-0458             
1 51648U 22012AC  26082.21042279  .00000639  00000+0  17934-2 0  9999
2 51648  87.8803  53.3665 0001736  85.3562 274.7764 13.10374422198040
ONEWEB-0461             
1 51649U 22012AD  26082.11748157  .00000051  00000+0  97907-4 0  9995
2 51649  87.9184  22.9406 0001904  75.0643 285.0699 13.17648664202555
ONEWEB-0463             
1 51650U 22012AE  26082.09891651  .00000014  00000+0  22076-5 0  9997
2 51650  87.9169  22.9754 0001915  74.9600 285.1743 13.17650641202334
ONEWEB-0464             
1 51651U 22012AF  26082.20710483  .00000449  00000+0  12495-2 0  9997
2 51651  87.8797  53.3950 0001953  91.9302 268.2050 13.10375577198069
ONEWEB-0468             
1 51652U 22012AG  26082.21374275  .00000685  00000+0  19270-2 0  9994
2 51652  87.8797  53.3880 0001987  93.1318 267.0037 13.10373042198045
ONEWEB-0473             
1 51653U 22012AH  26082.19879721  .00000247  00000+0  67062-3 0  9995
2 51653  87.8799  53.3926 0001821  86.0278 274.1058 13.10375983198040
ONEWEB-0474             
1 51654U 22012AJ  26081.88506094 -.00000138  00000+0 -43138-3 0  9990
2 51654  87.8809  53.4315 0001958  91.2727 268.8625 13.10375947197997
ONEWEB-0475             
1 51655U 22012AK  26082.11072711 -.00000043  00000+0 -14431-3 0  9991
2 51655  87.9171  22.9650 0001770 100.9972 259.1359 13.17650221202358
ONEWEB-0490             
1 54113U 22138A   26082.15834007  .00000097  00000+0  20921-3 0  9998
2 54113  87.9211 322.1112 0001880  86.3350 273.7998 13.19725981165483
ONEWEB-0492             
1 54114U 22138B   26082.18361391  .00000043  00000+0  75270-4 0  9992
2 54114  87.9205 322.1137 0001934  81.5917 278.5434 13.19725438165496
ONEWEB-0495             
1 54115U 22138C   26082.16149379  .00000127  00000+0  28507-3 0  9994
2 54115  87.9206 322.1195 0002255  96.4639 263.6751 13.19725286165471
ONEWEB-0497             
1 54116U 22138D   26082.17413567 -.00000006  00000+0 -48156-4 0  9990
2 54116  87.9206 322.1078 0001813  83.6988 276.4351 13.19725490165460
ONEWEB-0499             
1 54117U 22138E   26082.15753802  .00000105  00000+0  22971-3 0  9992
2 54117  87.9207 322.1211 0001676  89.4511 270.6813 13.19726620165470
ONEWEB-0500             
1 54118U 22138F   26082.15991605  .00000095  00000+0  20518-3 0  9991
2 54118  87.9207 322.1100 0001759  79.5617 280.5714 13.19726064165480
