[{"OBJECT_NAME":"ONEWEB-0452","OBJECT_ID":"2022-012Y","EPOCH":"2026-03-23T02:17:34.687968","MEAN_MOTION":13.17651054,"ECCENTRICITY":0.00016241,"INCLINATION":87.9173,"RA_OF_ASC_NODE":22.975,"ARG_OF_PERICENTER":85.0005,"MEAN_ANOMALY":275.1312,"EPHEMERIS_TYPE":0,"CLASSIFICATION_TYPE":"U","NORAD_CAT_ID":51644,"ELEMENT_SET_NO":999,"REV_AT_EPOCH":20233,"BSTAR":7.110378e-5,"MEAN_MOTION_DOT":4.0e-7,"MEAN_MOTION_DDOT":0},{"OBJECT_NAME":"ONEWEB-0456","OBJECT_ID":"2022-012AA","EPOCH":"2026-03-22T21:45:34.915104","MEAN_MOTION":13.10373702,"ECCENTRICITY":0.00019872,"INCLINATION":87.8815,"RA_OF_ASC_NODE":53.4156,"ARG_OF_PERICENTER":86.9312,"MEAN_ANOMALY":273.2042,"EPHEMERIS_TYPE":0,"CLASSIFICATION_TYPE":"U","NORAD_CAT_ID":51646,"ELEMENT_SET_NO":999,"REV_AT_EPOCH":19804,"BSTAR":0.0019586854,"MEAN_MOTION_DOT":6.96e-6,"MEAN_MOTION_DDOT":0},{"OBJECT_NAME":"ONEWEB-0457","OBJECT_ID":"2022-012AB","EPOCH":"2026-03-22T23:02:02.960736","MEAN_MOTION":13.10375857,"ECCENTRICITY":0.00018341,"INCLINATION":87.8797,"RA_OF_ASC_NODE":53.4349,"ARG_OF_PERICENTER":69.1922,"MEAN_ANOMALY":290.9401,"EPHEMERIS_TYPE":0,"CLASSIFICATION_TYPE":"U","NORAD_CAT_ID":51647,"ELEMENT_SET_NO":999,"REV_AT_EPOCH":19805,"BSTAR":-0.00070803113,"MEAN_MOTION_DOT":-2.35e-6,"MEAN_MOTION_DDOT":0},{"OBJECT_NAME":"ONEWEB-0458","OBJECT_ID":"2022-012AC","EPOCH":"2026-03-23T05:03:00.529056","MEAN_MOTION":13.10374422,"ECCENTRICITY":0.0001736,"INCLINATION":87.8803,"RA_OF_ASC_NODE":53.3665,"ARG_OF_PERICENTER":85.3562,"MEAN_ANOMALY":274.7764,"EPHEMERIS_TYPE":0,"CLASSIFICATION_TYPE":"U","NORAD_CAT_ID":51648,"ELEMENT_SET_NO":999,"REV_AT_EPOCH":19804,"BSTAR":0.0017933599,"MEAN_MOTION_DOT":6.39e-6,"MEAN_MOTION_DDOT":0},{"OBJECT_NAME":"ONEWEB-0461","OBJECT_ID":"2022-012AD","EPOCH":"2026-03-23T02:49:10.407648","MEAN_MOTION":13.17648664,"ECCENTRICITY":0.00019044,"INCLINATION":87.9184,"RA_OF_ASC_NODE":22.9406,"ARG_OF_PERICENTER":75.0643,"MEAN_ANOMALY":285.0699,"EPHEMERIS_TYPE":0,"CLASSIFICATION_TYPE":"U","NORAD_CAT_ID":51649,"ELEMENT_SET_NO":999,"REV_AT_EPOCH":20255,"BSTAR":9.7907409e-5,"MEAN_MOTION_DOT":5.1e-7,"MEAN_MOTION_DDOT":0},{"OBJECT_NAME":"ONEWEB-0463","OBJECT_ID":"2022-012AE","EPOCH":"2026-03-23T02:22:26.386464","MEAN_MOTION":13.17650641,"ECCENTRICITY":0.00019154,"INCLINATION":87.9169,"RA_OF_ASC_NODE":22.9754,"ARG_OF_PERICENTER":74.96,"MEAN_ANOMALY":285.1743,"EPHEMERIS_TYPE":0,"CLASSIFICATION_TYPE":"U","NORAD_CAT_ID":51650,"ELEMENT_SET_NO":999,"REV_AT_EPOCH":20233,"BSTAR":2.207642e-6,"MEAN_MOTION_DOT":1.4e-7,"MEAN_MOTION_DDOT":0},{"OBJECT_NAME":"ONEWEB-0464","OBJECT_ID":"2022-012AF","EPOCH":"2026-03-23T04:58:13.857312","MEAN_MOTION":13.10375577,"ECCENTRICITY":0.00019538,"INCLINATION":87.8797,"RA_OF_ASC_NODE":53.395,"ARG_OF_PERICENTER":91.9302,"MEAN_ANOMALY":268.205,"EPHEMERIS_TYPE":0,"CLASSIFICATION_TYPE":"U","NORAD_CAT_ID":51651,"ELEMENT_SET_NO":999,"REV_AT_EPOCH":19806,"BSTAR":0.0012494705,"MEAN_MOTION_DOT":4.49e-6,"MEAN_MOTION_DDOT":0},{"OBJECT_NAME":"ONEWEB-0468","OBJECT_ID":"2022-012AG","EPOCH":"2026-03-23T05:07:47.373600","MEAN_MOTION":13.10373042,"ECCENTRICITY":0.00019876,"INCLINATION":87.8797,"RA_OF_ASC_NODE":53.388,"ARG_OF_PERICENTER":93.1318,"MEAN_ANOMALY":267.0037,"EPHEMERIS_TYPE":0,"CLASSIFICATION_TYPE":"U","NORAD_CAT_ID":51652,"ELEMENT_SET_NO":999,"REV_AT_EPOCH":19804,"BSTAR":0.00192697,"MEAN_MOTION_DOT":6.85e-6,"MEAN_MOTION_DDOT":0},{"OBJECT_NAME":"ONEWEB-0473","OBJECT_ID":"2022-012AH","EPOCH":"2026-03-23T04:46:16.078944","MEAN_MOTION":13.10375983,"ECCENTRICITY":0.00018217,"INCLINATION":87.8799,"RA_OF_ASC_NODE":53.3926,"ARG_OF_PERICENTER":86.0278,"MEAN_ANOMALY":274.1058,"EPHEMERIS_TYPE":0,"CLASSIFICATION_TYPE":"U","NORAD_CAT_ID":51653,"ELEMENT_SET_NO":999,"REV_AT_EPOCH":19804,"BSTAR":0.00067062396,"MEAN_MOTION_DOT":2.47e-6,"MEAN_MOTION_DDOT":0},{"OBJECT_NAME":"ONEWEB-0474","OBJECT_ID":"2022-012AJ","EPOCH":"2026-03-22T21:14:29.265216","MEAN_MOTION":13.10375947,"ECCENTRICITY":0.00019583,"INCLINATION":87.8809,"RA_OF_ASC_NODE":53.4315,"ARG_OF_PERICENTER":91.2727,"MEAN_ANOMALY":268.8625,"EPHEMERIS_TYPE":0,"CLASSIFICATION_TYPE":"U","NORAD_CAT_ID":51654,"ELEMENT_SET_NO":999,"REV_AT_EPOCH":19799,"BSTAR":-0.00043137647,"MEAN_MOTION_DOT":-1.38e-6,"MEAN_MOTION_DDOT":0},{"OBJECT_NAME":"ONEWEB-0475","OBJECT_ID":"2022-012AK","EPOCH":"2026-03-23T02:39:26.822304","MEAN_MOTION":13.17650221,"ECCENTRICITY":0.000177,"INCLINATION":87.9171,"RA_OF_ASC_NODE":22.965,"ARG_OF_PERICENTER":100.9972,"MEAN_ANOMALY":259.1359,"EPHEMERIS_TYPE":0,"CLASSIFICATION_TYPE":"U","NORAD_CAT_ID":51655,"ELEMENT_SET_NO":999,"REV_AT_EPOCH":20235,"BSTAR":-0.00014431408,"MEAN_MOTION_DOT":-4.3e-7,"MEAN_MOTION_DDOT":0},{"OBJECT_NAME":"ONEWEB-0490","OBJECT_ID":"2022-138A","EPOCH":"2026-03-23T03:48:00.582048","MEAN_MOTION":13.19725981,"ECCENTRICITY":0.00018803,"INCLINATION":87.9211,"RA_OF_ASC_NODE":322.1112,"ARG_OF_PERICENTER":86.335,"MEAN_ANOMALY":273.7998,"EPHEMERIS_TYPE":0,"CLASSIFICATION_TYPE":"U","NORAD_CAT_ID":54113,"ELEMENT_SET_NO":999,"REV_AT_EPOCH":16548,"BSTAR":0.00020920741,"MEAN_MOTION_DOT":9.7e-7,"MEAN_MOTION_DDOT":0},{"OBJECT_NAME":"ONEWEB-0492","OBJECT_ID":"2022-138B","EPOCH":"2026-03-23T04:24:24.241824","MEAN_MOTION":13.19725438,"ECCENTRICITY":0.0001934,"INCLINATION":87.9205,"RA_OF_ASC_NODE":322.1137,"ARG_OF_PERICENTER":81.5917,"MEAN_ANOMALY":278.5434,"EPHEMERIS_TYPE":0,"CLASSIFICATION_TYPE":"U","NORAD_CAT_ID":54114,"ELEMENT_SET_NO":999,"REV_AT_EPOCH":16549,"BSTAR":7.5270171e-5,"MEAN_MOTION_DOT":4.3e-7,"MEAN_MOTION_DDOT":0},{"OBJECT_NAME":"ONEWEB-0495","OBJECT_ID":"2022-138C","EPOCH":"2026-03-23T03:52:33.063456","MEAN_MOTION":13.19725286,"ECCENTRICITY":0.00022559,"INCLINATION":87.9206,"RA_OF_ASC_NODE":322.1195,"ARG_OF_PERICENTER":96.4639,"MEAN_ANOMALY":263.6751,"EPHEMERIS_TYPE":0,"CLASSIFICATION_TYPE":"U","NORAD_CAT_ID":54115,"ELEMENT_SET_NO":999,"REV_AT_EPOCH":16547,"BSTAR":0.00028506874,"MEAN_MOTION_DOT":1.27e-6,"MEAN_MOTION_DDOT":0},{"OBJECT_NAME":"ONEWEB-0497","OBJECT_ID":"2022-138D","EPOCH":"2026-03-23T04:10:45.321888","MEAN_MOTION":13.1972549,"ECCENTRICITY":0.00018135,"INCLINATION":87.9206,"RA_OF_ASC_NODE":322.1078,"ARG_OF_PERICENTER":83.6988,"MEAN_ANOMALY":276.4351,"EPHEMERIS_TYPE":0,"CLASSIFICATION_TYPE":"U","NORAD_CAT_ID":54116,"ELEMENT_SET_NO":999,"REV_AT_EPOCH":16546,"BSTAR":-4.8155578e-5,"MEAN_MOTION_DOT":-6.0e-8,"MEAN_MOTION_DDOT":0},{"OBJECT_NAME":"ONEWEB-0499","OBJECT_ID":"2022-138E","EPOCH":"2026-03-23T03:46:51.284928","MEAN_MOTION":13.1972662,"ECCENTRICITY":0.0001676,"INCLINATION":87.9207,"RA_OF_ASC_NODE":322.1211,"ARG_OF_PERICENTER":89.4511,"MEAN_ANOMALY":270.6813,"EPHEMERIS_TYPE":0,"CLASSIFICATION_TYPE":"U","NORAD_CAT_ID":54117,"ELEMENT_SET_NO":999,"REV_AT_EPOCH":16547,"BSTAR":0.00022970931,"MEAN_MOTION_DOT":1.05e-6,"MEAN_MOTION_DDOT":0},{"OBJECT_NAME":"ONEWEB-0500","OBJECT_ID":"2022-138F","EPOCH":"2026-03-23T03:50:16.746720","MEAN_MOTION":13.19726064,"ECCENTRICITY":0.00017594,"INCLINATION":87.9207,"RA_OF_ASC_NODE":322.11,"ARG_OF_PERICENTER":79.5617,"MEAN_ANOMALY":280.5714,"EPHEMERIS_TYPE":0,"CLASSIFICATION_TYPE":"U","NORAD_CAT_ID":54118,"ELEMENT_SET_NO":999,"REV_AT_EPOCH":16548,"BSTAR":0.00020518414,"MEAN_MOTION_DOT":9.5e-7,"MEAN_MOTION_DDOT":0}]
